STARLINK-1597
1 26142C 20057AB  21325.14673468  .00003178  00000-0  21290-3 0  3252
2 26142  53.0528 162.5781 0001938  76.1185 306.3534 15.06394410    19
